restaurant_name,borough,street,longitude,latitude
Pomp and Circumstance Hospitality,Brooklyn,Lorimer Street,-73.949416,40.714264
Charm Kao,Brooklyn,Schermerhorn St.,-73.986352,40.689107
SAKE BAR HAGI 46,Manhattan,W. 46TH STREET,-73.989528,40.760463
Yum yum too,Manhattan,9ave,-73.990683,40.761081
Xochil Pizza Corp,Brooklyn,5th Avenue,-74.008216,40.64714
BECKETTS BAR,Manhattan,PEARL STREET,-74.0102,40.704023
Rico Pollo 3,Brooklyn,5th Avenue,-74.007575,40.64773
Tropical Sensation Restaurant,Manhattan,Amsterdam Ave.,-73.965333,40.800935
MANHATTANVILLE COFFEE,Manhattan,EDGECOMBE AVE,-73.944732,40.821318
Bodrum Turkish Meditrranean Restaurant,Manhattan,AMSTERDAM AVE,-73.973952,40.78916
El Rey Del Pescado,Brooklyn,5th Ave,-74.007542,40.647761
Treadwell Park & Black Hound Bar,Manhattan,South End Avenue,-74.016333,40.710233
La Cabana,Brooklyn,5th Ave,-74.007492,40.64781
Nourish Thai,Brooklyn,Vanderbilt Ave,-73.968714,40.678042
Chez Josephine,Manhattan,W 42nd St,-73.993326,40.758712
La Flor Restaurant and Cafe,Queens,Roosevelt Avenue,-73.911345,40.74451
A-Pou's Taste,Brooklyn,Grand St,-73.936027,40.713085
Public House NYC,Manhattan,3rd avenue,-73.975324,40.749581
Arco Cafe,Manhattan,Amsterdam ave,-73.966956,40.798751
Soda Bar,Brooklyn,Vanderbilt Ave.,-73.968623,40.678287
Brazmex Cafe,Queens,Beach 116 Street,-73.83764,40.58055
I SODI,Manhattan,CHRISTOPHER STREET,-74.004868,40.73331
Dalongyi Hot Pot,Manhattan,elizabeth street,-73.996811,40.716803
Taiwan pork chop house,Manhattan,Doyers,-73.997857,40.714258
"Triangle Apple, LLC dba Applebee's Neighborhood Grill & Bar",Brooklyn,Nostrand Ave,-73.947487,40.631039
Sammy's Original Shrimp Box,Bronx,City Island Avenue,-73.783632,40.8396
Bar Bruno,Brooklyn,Henry Street,-73.999784,40.683374
GUPSHUP,Manhattan,E 18 STREET,-73.987746,40.7368
Groove,Manhattan,Macdougal St,-74.000054,40.730527
Taste of Lahore Inc,Queens,Northern Blvd,-73.89353,40.754694
Universal Halal Inc,Queens,Liberty Avenue,-73.816891,40.689053
chasers bar and grill,Queens,flushing ave,-73.90558,40.720129
Enoteca On Court,Brooklyn,Court Street,-73.995951,40.682232
la villa pizza,Brooklyn,5th ave,-73.981881,40.674461
Marco Polo Ristorante,Brooklyn,Court street,-73.995922,40.68229
Raku Soho,Manhattan,Macdougal St.,-74.002738,40.727321
Silvia L Duran,Manhattan,St Nicholas Avenue,-73.930687,40.8535
El Nuevo Pollo Sabroso,Bronx,Westchester Ave,-73.867128,40.83167
SLAINTE,Manhattan,BOWERY,-73.992427,40.724655
Tacos Y Mas,Queens,Mott Ave,-73.750756,40.603102
luv.n.oven pizzeria,Brooklyn,Dekalb ave,-73.977669,40.689787
Mally's Deli & Grocery corp.,Brooklyn,Knickerbocker av,-73.92663,40.703528
Thai101,Queens,Bell Blvd,-73.771745,40.76506
Meltingpot Cusine,Brooklyn,Broadway,-73.943727,40.701819
The Kettle Black,Brooklyn,3rd Ave,-74.031164,40.62324
Le Bilboquet,Manhattan,East 60th Street,-73.970684,40.764091
TASTY HAND-PULLED NOODLES,Manhattan,DOYERS STREET,-73.997634,40.714094
Tiramisu restaurant,Manhattan,Third avenue,-73.956703,40.77511
NUTRICION SALUD Y VIDA,Bronx,MELROSE AVE,-73.916611,40.818605
OMAR'S,Manhattan,BROOME STREET,-73.992211,40.718735
DUNKIN DONUTS,Manhattan,BROADWAY,-73.97515,40.790014
DUNKIN DONUTS,Manhattan,SAINT NICHOLAS AVENUE,-73.94132,40.831005
Pizzatown,Brooklyn,5th Avenue,-73.977993,40.68004
Fleming By Le Bilboquet,Manhattan,East 62nd Street,-73.969781,40.76537
The Bronx Beer Hall,Bronx,Arthur Avenue,-73.888674,40.854247
Cafe Bilboquet,Manhattan,East 60th Street,-73.97063,40.764069
MASK POT INC,Queens,ROOSEVELT AVE,-73.829236,40.759785
Tea and Burger,Brooklyn,New Utrecht Ave,-73.999308,40.61809
MASK POT INC,Queens,MAIN STREET,-73.829809,40.758924
TAKE YOUR HAND BROOKLYN INC,Brooklyn,8TH AVE STORE A,-74.007865,40.637108
Bar Culaccino,Manhattan,West 56th Street,-73.982322,40.765611
Akino,Queens,Broadway,-73.880563,40.741501
Royal Falafel and shawarma,Brooklyn,Calyer st,-73.950332,40.7291
Chasers bar and grill,Queens,58th rd,-73.905561,40.720491
Cholula Deli,Brooklyn,Myrtle Ave,-73.916631,40.698995
battista ristorante,Brooklyn,avenue N,-73.930599,40.618714
The Gem Saloon,Manhattan,3rd Avenue,-73.981235,40.741438
Angaar,Manhattan,Columbus ave,-73.978148,40.778278
Helena Fusion Restaurant,Queens,37th ave,-73.882284,40.749951
Wild Birds,Brooklyn,Dean St.,-73.958352,40.678185
The Little One,Manhattan,East Broadway,-73.990849,40.714006
Taiwan Bear House,Manhattan,Pell,-73.997681,40.714739
Mingle Restaurant Inc,Queens,Northern Blvd,-73.831715,40.763022
Spot Dessert Bar,Queens,Prince Street,-73.832244,40.759485
Jobito Bronx,Bronx,Jerome ave,-73.908178,40.852916
Ben & Teena's Ice Cream,Queens,Bell Blvd,-73.771669,40.764925
Katie O's,Brooklyn,East New York Avenue,-73.947491,40.661758
Ben & Teena's Ice Cream,Queens,Bell Blvd,-73.771669,40.764925
Tong,Brooklyn,Starr Street,-73.920497,40.707742
CHA CHAN TANG,Manhattan,mott st,-73.998748,40.715175
cha chan tang,Manhattan,mott st,-73.998748,40.715175
MOIC CAFE,Manhattan,CROSBY,-73.997341,40.723437
Deja Vu Restaurant and Bar,Staten Island,Port Richmond  Ave,-74.135862,40.634319
Bayside Diner,Queens,Northern Boulevard,-73.776301,40.758517
Morning Star Cafe,Manhattan,2nd Ave,-73.968356,40.755121
Sweet Chick,Queens,Vernon Blvd,-73.953033,40.745956
Sweet Chick,Queens,Vernon Blvd,-73.953033,40.745956
Fresh Salt,Manhattan,Beekman Street,-74.002575,40.707026
New Beach Bar LLC,Brooklyn,Gerritsen Ave,-73.92507,40.592772
New Beach BAr LLC,Brooklyn,Gerritsen Ave,-73.92507,40.592772
Veselka Restauant,Manhattan,Second Avenue,-73.987303,40.729093
The Parlour,Manhattan,86th Street,-73.976942,40.788491
Bakestone Bakery,Brooklyn,Nassau Ave,-73.945478,40.725499
BAR NANA,Manhattan,GANSEVOORT ST.,-74.007282,40.739397
lobster house,Queens,queens blvd,-73.863635,40.730605
New York City Bagel and Coffee House,Queens,Broadway,-73.926818,40.762636
Osteria Laura NYC,Manhattan,Adam Clayton Powell Jr. Blvd.,-73.953243,40.802254
The 13th Step,Manhattan,Second Ave,-73.987123,40.72937
THREE DECKER RESTAURANT LTD,Manhattan,2ND AVENUE,-73.949441,40.781016
Watawa,Queens,Ditmars blvd,-73.909513,40.775283
Hilltop Perk Cafe,Manhattan,Haven Ave.,-73.942562,40.84427
Luscious Thai,Manhattan,1 Ave.,-73.961416,40.760391
Bordeaux,Brooklyn,Coney island ave,-73.962521,40.610695
SEVEN CHINA,Queens,HORACE HARDING EXPY,-73.755525,40.749362
Juice Generation,Manhattan,Greenwich Avenue,-74.001671,40.737496
mk,Manhattan,WEST 32Nd st,-73.986091,40.747414
Woorijip,Manhattan,West 32nd Street,-73.986278,40.747475
Vinnie's Pizzeria,Brooklyn,Bedford Ave,-73.956689,40.718815
Vanilla Gorilla Cafe,Manhattan,44th st,-73.989922,40.758978
Spice,Manhattan,1st Ave,-73.95359,40.771123
Thailands Center Point,Queens,39th Ave,-73.900464,40.746626
Congee Village,Manhattan,Allen Street,-73.990631,40.71868
Prince Tea House,Queens,Prince Street,-73.832867,40.761372
SCALINO G.P.,Brooklyn,MANHATTAN AVE,-73.951273,40.724599
FUYU RAMEN & SAKE,Queens,Queens blvd,-73.918449,40.743135
Pico de Gallo Restaurant,Queens,Roosevelt Ave,-73.885598,40.747468
Pollo Campero,Brooklyn,5TH Ave,-74.007575,40.647755
SUteiShi,Manhattan,Peck Slip,-74.001789,40.708025
Pico De Gallo Restaurant,Queens,Roosevelt Avenue,-73.885598,40.747468
4 Charles Prime Rib,Manhattan,Charles St,-74.00061,40.735261
Tina Bar Restaurant,Bronx,Washington Ave,-73.892022,40.856525
WOLFGANG'S STEAKHOUSE,Manhattan,8TH AVE,-73.990651,40.756039
Ramen DANBO,Manhattan,Carmine st,-74.003482,40.729997
Milk Money Kitchens Annex,Manhattan,Avenue A,-73.985031,40.723979
Sushi Ren,Manhattan,2nd Ave,-73.953507,40.775438
The Hamilton,Manhattan,Amsterdam Avenue,-73.964176,40.802562
The Hamilton,Manhattan,Amsterdam Avenue,-73.964176,40.802562
Brian Dempsey's,Queens,Bell Blvd,-73.77168,40.764939
TOSOCCHON,Queens,Bell Blvd,-73.768858,40.759406
Supermoon Bakehouse,Manhattan,Rivington Street,-73.987262,40.719755
Mallys'DELI Grocery CORP,Brooklyn,Knickerbocker,-73.92663,40.703528
Upi Jaya,Queens,Woodside Ave,-73.888712,40.74342
House Of Flava',Bronx,E 233rd Street,-73.850816,40.891331
Mansion,Queens,Broadway,-73.914028,40.756644
Mansion,Queens,Broadway,-73.914028,40.756644
GEO SI GI,Queens,NORTHERN BLVD,-73.812144,40.764897
Lima 33,Queens,Northern Blvd,-73.734724,40.771563
Kazunori the Original Handroll Bar,Manhattan,W. 28th St.,-73.988383,40.74515
Claret Wine Bar,Queens,Skillman Avenue,-73.917863,40.74654
SUBWAY,Brooklyn,2nd avenue,-74.019358,40.646741
"Kushi Izakaya Restaurant, Inc",Brooklyn,86th Street,-73.999582,40.605392
MrChow,Manhattan,East 57th Street,-73.964243,40.758855
Gt Kingston Diner,Queens,Liberty Ave,-73.832628,40.684147
Fred's,Manhattan,Amsterdam Avenue,-73.976553,40.785598
Kasumi Sushi & BBQ Restaurant,Brooklyn,86 Street,-74.001008,40.606257
TORTILLERA Y TAQUERIA LENCHITA CORP,Bronx,EAST 183RD STREET,-73.888521,40.852855
TORTILLERIA Y TAQUERIA LENCHITA CORP,Bronx,EAST 183RD STREET,-73.888521,40.852855
ASTROS FOOD CORP,Queens,30th ave,-73.922018,40.767195
GRECA,Manhattan,Washington Street,-74.010268,40.723994
Shanghai Red,Bronx,Westchester Ave,-73.842499,40.840252
Golden Imperial Palace,Brooklyn,62nd Street,-74.014542,40.636638
Chef Guo,Queens,Broadway,-73.879413,40.740679
Loving Hut,Brooklyn,Bushwick Avenue,-73.940977,40.712511
Kampai Hibachi LLC,Queens,Union Turnpike,-73.783925,40.728317
LAS TIAS BAKERY CAFE,Queens,METROPOLITAN AVENUE,-73.878205,40.712849
Naidre's Cafe,Brooklyn,7 avenue,-73.982914,40.665312
ciccios,Brooklyn,ave u,-73.976317,40.596648
sichuan hotpot cuisine,Manhattan,pell street,-73.998261,40.714879
U-gu,Brooklyn,Myrtle ave,-73.962767,40.69379
Petite Boucherie,Manhattan,Christopher Street,-73.999856,40.734034
Sik Gaek,Queens,Roosevelt Ave.,-73.915626,40.743215
Osteria Laura NYC,Manhattan,Adam Clayton Powell Jr. Blvd,-73.953243,40.802254
Laduree,Manhattan,Madison Ave,-73.966132,40.770845
Sweetgreen,Manhattan,Bowery,-73.991734,40.726535
THE BAGEL MARKET,Brooklyn,7th AVE,-73.975724,40.674097
Carmine's,Manhattan,West 44th st,-73.98619,40.757405
Quality Bistro,Manhattan,West 55th Street,-73.979001,40.763379
Smith & Wollensky,Manhattan,Third Avenue,-73.971106,40.755327
Smith & Wollensky,Manhattan,Third Avenue,-73.971106,40.755327
If-Cha 520 Dessert,Queens,37th Ave.,-73.832872,40.760911
Hair Of The Dog,Manhattan,Orchard Street,-73.988636,40.721224
Quality Meats,Manhattan,West 58th Street,-73.975528,40.76452
Park Avenue,Manhattan,Park Avenue South,-73.985089,40.741955
Kappo Masa,Manhattan,Madison Avenue,-73.963447,40.774522
PARAISO BAR & LOUNGE INC,Queens,JAMAICA AVENUE,-73.775608,40.709236
Poke Zest,Brooklyn,manhattan ave,-73.950852,40.723857
Peking Duck House,Manhattan,236 East 53rd St,-73.968489,40.757314
Viand Cafe,Manhattan,Broadway,-73.981379,40.780737
Rockmeisha,Manhattan,Barrow street,-74.002522,40.732689
Taqueria La Nortena,Brooklyn,Manhattan Ave,-73.951338,40.724755
fresh&co,Manhattan,broadway,-73.987599,40.751704
Pado,Manhattan,2nd Ave,-73.985679,40.731352
Taishan Tofu pot,Queens,37 avenue,-73.832872,40.760911
THE DOLAR SHOP,Queens,37AVE,-73.832872,40.760911
TROPILYZ B RESTAURANT INC,Bronx,GRAND CONCOURSE,-73.897617,40.861553
El Buen Sabor Deli Corp,Queens,163rd  Street,-73.798044,40.706657
Brazen Fox Kitchen & Craft Beer,Manhattan,3rd Ave,-73.987617,40.732711
Park Asia,Brooklyn,66th Street,-74.012837,40.631821
Modern Bread & Bagel / Arba,Manhattan,Columbus Ave,-73.973784,40.784299
sergimmo,Queens,14th ave,-73.812845,40.789074
sergimmo,Manhattan,Avenue of America,-73.998196,40.735484
Red Rooster Harlem,Manhattan,Lenox Avenue,-73.945187,40.808165
Supper Restaurant,Manhattan,East 2nd Street,-73.98518,40.722774
Fish and Beef,Brooklyn,7th Avenue,-74.007217,40.641209
Ako Sushi,Brooklyn,Bedford Ave,-73.958555,40.717048
Little Canal,Manhattan,Canal Street,-73.990412,40.71445
The Ranch Restaurant and Bar of Guyana,Queens,Liberty Ave,-73.812597,40.691448
Bread Brothers Bagel Cafe,Brooklyn,Bushwick Avenue,-73.939942,40.708215
THE BARLOW,Manhattan,PARK PLACE,-73.962629,40.675406
THE BARLOW,Brooklyn,PARK PLACE,-73.962629,40.675406
Grab & Go Cafe,Brooklyn,60th Street,-74.016867,40.63991
Golden Roast Inc,Queens,40th Rd,-73.830119,40.758856
Fresca Tortilla Ditmars Inc,Queens,Ditmars Boulevard,-73.910155,40.775766
Holy Schnitzel,Manhattan,Amsterdam Ave,-73.972311,40.791407
Magazine,Brooklyn,Franklin St,-73.957497,40.72935
J & J Pizzeria Cafe Bar Corp,Queens,82 st,-73.883858,40.747249
TITO'S BBQ STATION,Manhattan,LENOX AVE,-73.944301,40.809378
Mille-feuille Bakery,Brooklyn,Vanderbilt Ave,-73.968916,40.677535
THE WINSLOW,Brooklyn,PARK PLACE,-73.962629,40.675406
The Water Hazard,Manhattan,Chelsea Piers,-74.008496,40.747999
Barnea Bistro,Manhattan,East 46th Street,-73.972085,40.753118
Blossom,Manhattan,University Place,-73.993484,40.733131
The Penny Farthing,Manhattan,3rd Ave,-73.987779,40.732453
The International Bar,Manhattan,First Avenue,-73.986052,40.726529
Walter's,Brooklyn,DeKalb Avenue,-73.973273,40.689618
Love and Dough,Brooklyn,Jay Street,-73.986681,40.702763
Love and Dough,Brooklyn,Jay Street,-73.986681,40.702763
gelateria gentile,Brooklyn,wythe avenue,-73.963934,40.716243
UOTORA,Brooklyn,BERGEN ST.,-73.950703,40.676145
Royal india palace and restaurant inc.,Queens,Atlantic avenue,-73.828684,40.693869
GEMELLI,Brooklyn,STARR STREET,-73.920497,40.707742
Salt + Charcoal,Brooklyn,Grand St.,-73.961504,40.714601
Toro Loco,Manhattan,Stone Street,-74.012068,40.704034
Bay Parkway Seafood Palace Inc,Brooklyn,86th Street,-73.994325,40.602252
Dog and Bone,Manhattan,3rd Avenue,-73.982289,40.740028
Ozone Pizza,Queens,Liberty Ave,-73.842638,40.680689
Peasant,Manhattan,Elizabeth Street,-73.994502,40.721793
1 Buen Sabor Inc,Queens,Queens Blvd,-73.919448,40.743251
Casa Nomad,Manhattan,Broadway,-73.988538,40.746264
HALO KITCHEN & LOUNGE,Queens,LIBERTY AVENUE,-73.817537,40.688799
Vista Hermosa Deli Restaurant,Bronx,Evergreen Avenue,-73.881072,40.828499
Cafe Fiorello,Manhattan,Broadway,-73.982151,40.771518
Bowery Beer Garden / Shinka Ramen,Manhattan,Bowery,-73.995476,40.717182
Lovely Day,Manhattan,Elizabeth St,-73.994484,40.721848
LoL Times Square,Manhattan,7th Avenue,-73.98437,40.759543
Ecuapollos Bar restaurant,Brooklyn,Myrtle ave,-73.926817,40.697915
Ming's Caffe,Manhattan,Canal Street,-73.990466,40.714467
Oso,Manhattan,Amsterdam Ave,-73.950107,40.821836
Dinosaur BBQ,Brooklyn,Union St,-73.984,40.677774
P J Horgan's,Queens,Skillman Avenue,-73.915081,40.746223
Beat Mazesoba,Queens,Crocheron Ave,-73.804343,40.762573
Cheburechnaya,Queens,63rd Dr.,-73.86402,40.727518
Zucker's Bagels Flatiron,Manhattan,East 23rd street,-73.987474,40.740646
SPICE UP,Bronx,CROSS BRONX EXPY,-73.859433,40.832647
Barbalu,Manhattan,Front street,-74.002157,40.707506
Annapurna Thakali Kitchen Inc,Queens,Roosevelt Avenue,-73.893181,40.746655
Marco Polo Pizza & Deli,Manhattan,Madison Avenue,-73.956155,40.784485
Dinosaur Barbque,Manhattan,12th ave,-73.960851,40.817797
American Whiskey TriBeCa,Manhattan,W Broadway,-74.006522,40.718941
Medusa,Brooklyn,5th ave,-73.978967,40.678602
THE IZAKAYA NYC on East 4th,Manhattan,East 4th street,-73.983523,40.723716
Kame,Manhattan,8th AVE,-73.996864,40.747511
Oscar's place,Manhattan,Hudson st,-74.006589,40.731833
Home Sweet Harlem,Manhattan,Amsterdam Avenue,-73.952002,40.81924
Bogota Latin Bistro,Brooklyn,5th avenue,-73.97923,40.678212
338 E. 6TH REST. INC.,Manhattan,E 6th St,-73.987542,40.726971
Il Brigante Restaurant,Manhattan,Front Street,-74.002532,40.707333
NEW ISTANBUL GRILL,Manhattan,West 14th Street,-74.003414,40.740119
About Coffee,Manhattan,SULLIVAN STREET,-74.003889,40.724625
Congee Village Restaurant & Bar of Flushing Inc.,Queens,37th Ave,-73.832872,40.760911
Bronx Ice Co,Brooklyn,Manhattan ave,-73.954979,40.734646
Upi Jaya,Queens,Woodside Ave,-73.888712,40.74342
Shukette,Manhattan,Ninth Avenue,-74.000772,40.747234
Bilt Bar,Brooklyn,Vanderbilt Ave,-73.967901,40.680304
Bricolage,Brooklyn,5th Avenue,-73.979479,40.677877
Tel Aviv Cafe,Brooklyn,CONEY ISLAND AVE,-73.962532,40.610876
Kiku Asian bistro,Brooklyn,5 ave,-73.979652,40.677581
The Capital Grille,Manhattan,East 42nd Street,-73.975407,40.751181
mcdonalds,Queens,myrtle ave,-73.910737,40.699583
Philly Pretzel Factory,Brooklyn,5th Ave,-73.978934,40.678651
The Clam,Manhattan,Hudson Street,-74.006808,40.730436
Speedy's Cafe,Manhattan,Broadway,-73.988465,40.748296
Obica Mozzarella Bar,Manhattan,Broadway,-73.989492,40.740166
Grab & Go Cafe,Brooklyn,60th Street,-74.016867,40.63991
bottino,Manhattan,10th ave,-74.003533,40.748554
Joanne Trattoria,Manhattan,West 68th Street,-73.979875,40.774512
Rab's Country Lanes,Staten Island,Hylan Boulevard,-74.089443,40.589514
burrito bar & kitchen,Brooklyn,Flatbush ave,-73.973429,40.678546
Chingoo restaurant,Brooklyn,Graham ave,-73.944595,40.715768
Il Bel Paese Pizzeria & Trattoria,Brooklyn,Knickerbocker Avenue,-73.923383,40.701684
FRIENDSHIP FOODS ONE INC,Manhattan,BOWERY,-73.995217,40.717659
GRILL MASTER 001 INC,Queens,39TH AVE UNIT 101,-73.83414,40.759106
Prince Laban&Chinese restaurent,Queens,74 street,-73.891596,40.74763
da gennaro,Manhattan,mulberry,-73.997836,40.718332
The Dip,Manhattan,St. Marks Pl.,-73.986654,40.728157
Caffe Aronne,Manhattan,Greenwich Avenue,-74.002226,40.738481
Qing Dao Restaurant,Queens,Main Street,-73.829611,40.758477
Kitsby Dessert Bar,Brooklyn,Grand Street,-73.96075,40.714271
SPIN,Manhattan,East 23rd Street,-73.987359,40.740599
Ultra spicy house,Queens,Kissena blvd,-73.822499,40.753649
GYRO KING,Bronx,EAST FORDHAM RD.,-73.90024,40.862447
Paper Rain,Brooklyn,Atlantic Ave,-73.891967,40.676305
GYRO KING,Bronx,EAST FORDHAM RD,-73.90024,40.862447
The Wilky,Brooklyn,Patchen Avenue,-73.927101,40.688059
Brooklyn chop house,Manhattan,nassau street,-74.006027,40.711541
THE SKYLARK,Brooklyn,5TH AVE,-73.987365,40.667882
Mee Noodle Shop,Manhattan,9th Avenue,-73.987697,40.76522
PETER'S GRILL & BAR CORP,Queens,ROCKAWAY BLVD,-73.865017,40.685851
Krolewskie Jadlo,Brooklyn,Manhattan Avenue,-73.951576,40.725175
35-09 Ditmars Bagel Corp,Queens,Ditmars Blvd,-73.908748,40.774763
Blendzville Cafe Inc,Brooklyn,Sutter ave,-73.922905,40.665274
KINGS' CARRIAGE HOUSE,Manhattan,EAST 82ND STREET,-73.954727,40.775765
Mad Tropical,Brooklyn,Troutman Street,-73.926873,40.702479
Gregorys Coffee,Manhattan,Broadway,-73.995631,40.726794
Le Pain Quotidien - Bryant Park,Manhattan,West 40th Street,-73.984379,40.753266
Le Pain Quotidien 83rd Street,Manhattan,First Avenue,-73.95093,40.774731
The Garret,Manhattan,Bleecker Street,-74.003724,40.732484
Bilao Filipino Cuisine,Manhattan,1st Ave,-73.954703,40.7696
Le Pain Quotidien 53rd street,Manhattan,E 53rd St,-73.975342,40.760222
Le Pain Quotidien Soho,Manhattan,Grand Street,-74.00171,40.721389
Le Pain Quotidien Tribeca,Manhattan,West Broadway,-74.009566,40.71509
Le Pain Quotidien GCW,Manhattan,East 44th St.,-73.979138,40.754434
Le Pain Quotidien Lincoln Sq,Manhattan,W 65th St,-73.980851,40.772468
Le Pain Quotidien First Ave and 68th,Manhattan,First Ave,-73.957694,40.765465
Quality Bistro,Manhattan,West 55th Street,-73.979001,40.763379
Healthy Joe's,Manhattan,Murray street,-74.007773,40.713298
Kurant,Manhattan,2nd Ave,-73.965058,40.759649
Smith & Wollensky,Manhattan,Third Avenue,-73.971106,40.755327
BICKLES TO GO,Bronx,COURTLANDT AVE,-73.917653,40.82075
MARIA ON THE GRILL INC,Brooklyn,PITKIN AVENUE,-73.873208,40.67521
Ample Hills Creamery,Brooklyn,Gold St,-73.983452,40.690833
Corporate Chef,Manhattan,56th Street,-73.976077,40.762962
LA PULPERIA 44,Manhattan,9TH AVE,-73.991626,40.759829
LA PULPERIA 44,Manhattan,9TH AVE,-73.991626,40.759829
Joe's Ginger,Manhattan,Pell Street,-73.998207,40.714851
FELIX ROASTING CO.,Manhattan,GREENE ST,-73.999867,40.724373
Shake Shack UWS,Manhattan,Columbus Ave.,-73.976266,40.780893
mekong restaurant,Brooklyn,dekalb ave,-73.96895,40.689458
POLLO CAMPERO,Queens,ROOSEVELT AVENUE,-73.862397,40.749894
MR.Q'S GOURMET INC,Brooklyn,8TH AVENUE,-74.008572,40.63646
O'Flanagan's Bar & Grill,Manhattan,Third Avenue,-73.950634,40.783424
Tito Rad's Grill,Queens,Queens Blvd.,-73.915631,40.742798
Curry leaves restaurants,Queens,40road,-73.830127,40.758873
Focaccia pizza,Brooklyn,Ave m,-73.961642,40.617825
Los Tacos Al Pastor,Brooklyn,Front Street,-73.987492,40.702461
Papa's Kitchen,Queens,83rd Street,-73.883313,40.749527
Love and Dough,Brooklyn,Pearl Street,-73.987582,40.703056
Love and Dough,Brooklyn,Pearl Street,-73.987582,40.703056
Archway Cafe,Brooklyn,Pearl Street,-73.987582,40.703056
HASANI,Brooklyn,PEARL STREET,-73.987582,40.703056
Mango Mango Desert,Brooklyn,86th Street,-73.997735,40.604286
Little Cheers Inc,Queens,Roosevelt Avenue,-73.907244,40.745371
TAK HING KITCHEN INC,Brooklyn,86TH STREET,-73.999363,40.605263
Zona Sur,Brooklyn,4th Avenue,-74.008653,40.650256
CAPITOL DINER,Manhattan,BROADWAY,-73.921597,40.867566
ASHOKA,Manhattan,Columbus Avenue,-73.97334,40.784875
Felice,Manhattan,Gold Street,-74.006918,40.707753
RedFarm,Manhattan,Broadway,-73.98092,40.782137
P&S Bakery and Restaurant,Brooklyn,Utica avenue,-73.930259,40.650721
Wayan,Manhattan,spring street,-73.99505,40.721441
Blue Collar,Brooklyn,Dekalb Ave,-73.920579,40.702925
Buffalo Wild Wings,Staten Island,Richmond Ave.,-74.158474,40.613298
OEC BUN & RAMEN,Manhattan,LEXINGTON AVE,-73.984414,40.739973
Rothschild TLV,Manhattan,Lexington Avenue,-73.959209,40.774512
SWEETGREEN,Manhattan,AMSTERDAM AVE,-73.980401,40.780284
Toms restaurant,Manhattan,Broadway,-73.965721,40.805497
SWEETGREEN,Manhattan,AMSTERDAM AVE,-73.980401,40.780284
SWEETGREEN,Manhattan,1ST AVE,-73.956574,40.767029
Java Day,Queens,162 street,-73.804276,40.758307
Ample Hills Creamery,Manhattan,Delancey Street,-73.988085,40.718509
Java Day,Queens,162 Street,-73.804276,40.758307
SWEETGREEN,Manhattan,CHAMBERS ST.,-74.008755,40.715309
The Plaza Hotel,Manhattan,Fifth Avenue,-73.973951,40.764155
Bul Inc,Brooklyn,5th avenue,-74.024212,40.625663
Festival Cafe,Manhattan,2nd ave,-73.963584,40.76166
SWEETGREEN,Manhattan,EAST 61 ST.,-73.967551,40.763607
SWEETGREEN,Manhattan,EAST 61 ST.,-73.967551,40.763607
Mulberry & Vine,Brooklyn,Prospect Street,-73.988463,40.700704
Ihop,Brooklyn,Livingston Street,-73.983734,40.68886
Javelina,Manhattan,Second Avenue,-73.958006,40.769305
SWEETGREEN,Brooklyn,COURT ST,-73.992182,40.690047
Sherwoods Keep inc,Queens,205 Cypress Avenue,-73.919855,40.708206
Sherwoods Keep inc,Queens,205 Cypress Avenue,-73.919855,40.708206
SWEETGREEN,Brooklyn,NORTH 4TH ST.,-73.959043,40.715871
Ovenly,Brooklyn,Greenpoint Avenue,-73.959521,40.729704
IL Postino Ristorante,Manhattan,East 49th Street,-73.96801,40.753847
SWEETGREEN,Manhattan,BROADWAY,-73.974027,40.791559
Local,Manhattan,Sullivan Street,-74.001919,40.72703
Characters Bar & Grill,Manhattan,West 54th street,-73.983095,40.764305
SWEETGREEN,Manhattan,BROADWAY,-73.974027,40.791559
gertrude,Manhattan,w 96th st,-73.970674,40.794171
Don Chucho,Staten Island,Forest Ave,-74.127013,40.626836
Hanoi Soup Shop,Manhattan,St. Marks Place,-73.984551,40.727292
EL PAISANITO RESTAURANT CORP,Bronx,ZEREGA AVE,-73.8474,40.837292
Goodfellas  of long island city,Queens,40th Avenue,-73.937811,40.753429
Boubou Restaurant Corp,Brooklyn,86th Street,-74.028036,40.622596
Bien Cuit,Brooklyn,Smith St.,-73.989868,40.687628
Happy house seafood restaurant,Brooklyn,8ave,-74.003866,40.640981
Ihop,Brooklyn,Church avenue,-73.957825,40.650424
Bardolino Pizza II Inc,Manhattan,Amsterdam Avenue,-73.978009,40.783564
El Sason De Mi Abuela Corp,Bronx,Westchester Ave,-73.877169,40.828786
Munch,Brooklyn,Coney Island Ave,-73.965046,40.624052
Monk McGinn's,Manhattan,Murray Street,-74.009747,40.71422
Thai Farm Kitchen Seaport,Manhattan,Peck Slip,-74.001872,40.708143
Fat Buddha,Manhattan,Avenue A,-73.98074,40.729866
Fat Buddha,Manhattan,Avenue A,-73.98074,40.729866
Raj Mahal,Manhattan,E 6th Street,-73.987812,40.727087
Yuzu,Manhattan,Lenox Ave,-73.944261,40.809433
Pink Nori,Queens,30 ave,-73.917241,40.764941
Island Cz Lounge,Brooklyn,Utica Avenue,-73.928857,40.637375
Benjys Pizza,Queens,Main Street,-73.820912,40.724898
Pecoshitas cafe bakery,Queens,Roosevelt Avenue,-73.885652,40.747463
Kyuramen ???,Queens,37th Ave,-73.833483,40.760667
Queen,Brooklyn,Starr Street,-73.922538,40.705729
Snow Show Flushing Inc,Queens,41 Ave,-73.830284,40.757841
Village Natural Restaurant,Manhattan,Greenwich Ave,-74.00052,40.735602
Margon Restaurant,Manhattan,West 46th street,-73.9834,40.757863
Ipoh kitchen Asian cuisine,Brooklyn,20AVE,-73.98538,40.616969
Skyline Bar & Lounge,Bronx,Wilkinson Avenue,-73.842658,40.852788
SWEETGREEN,Manhattan,EAST 55 ST.,-73.97262,40.760691
Ihop,Brooklyn,Flushing avenue,-73.941153,40.700915
SWEETGREEN,Manhattan,UNIVERSITY PLACE,-73.992708,40.734009
Archway Cafe,Brooklyn,Jay Street,-73.986681,40.702763
SWEETGREEN,Queens,UNIVERSITY PLACE,-73.992708,40.734009
SWEETGREEN,Manhattan,BROADWAY,-73.987378,40.752577
SWEETGREEN,Manhattan,6TH AVE,-73.983732,40.755352
SWEETGREEN,Manhattan,PARK AVE,-73.982092,40.746077
SWEETGREEN,Manhattan,BROADWAY,-73.988805,40.744821
SWEETGREEN,Manhattan,GREENWICH ST,-74.009928,40.721353
SWEETGREEN,Manhattan,GREENWICH ST,-74.009928,40.721353
SWEETGREEN,Manhattan,KENMARE ST,-73.997154,40.721359
Black Fox Coffee,Manhattan,East 45th,-73.977398,40.754538
Rintintin,Manhattan,Spring Street,-73.994823,40.721348
Butler,Brooklyn,North 8th Street,-73.959203,40.719689
JEJUDO,Queens,41st Ave.,-73.815155,40.762253
SWEETGREEN,Manhattan,BROADWAY,-73.964466,40.80725
SWEETGREEN,Manhattan,EAST 18 ST.,-73.99126,40.738269
SWEETGREEN,Manhattan,BLEECKER ST,-74.002349,40.730087
SWEETGREEN,Manhattan,WALL ST,-74.008342,40.705749
SPIN,Manhattan,East 23rd Street,-73.987359,40.740599
SWEETGREEN,Manhattan,GANSEVOORT ST,-74.005839,40.739409
SWEETGREEN,Manhattan,3RD AVE,-73.954708,40.777851
SWEETGREEN,Manhattan,ASTOR PLACE,-73.992196,40.729972
SWEETGREEN,Manhattan,BOWERY,-73.991734,40.726535
pita grill,Manhattan,2nd ave,-73.965196,40.759462
SWEETGREEN,Manhattan,BOWERY,-73.991734,40.726535
Legendary Bar & Grill Corp.,Bronx,East Tremont Avenue,-73.826387,40.830872
Mcdonalds,Brooklyn,Nostrand ave,-73.947655,40.632428
CHEF TORIBIO #2 RESTAURANT CORP,Queens,JAMAICA AVE,-73.867332,40.691288
District Local,Manhattan,7th Avenue,-73.999307,40.73909
Edo Japanese Restaurant,Manhattan,E 17th street,-73.991491,40.737624
Joe's Ginger,Manhattan,Pell Street,-73.998207,40.714851
Joe's Ginger,Manhattan,Pell Street,-73.998207,40.714851
Basta Pasta,Manhattan,W 17th,-73.99353,40.738475
12 Chairs Cafe,Brooklyn,Wythe Ave,-73.965049,40.714522
Grain House,Manhattan,Amsterdam ave,-73.965933,40.80012
Kakurega Japanese Cuisine,Queens,37th Ave,-73.833429,40.760686
BONDST,Manhattan,Bond street,-73.994512,40.72684
BONDST,Manhattan,Bond street,-73.994512,40.72684
TACO PUEBLA,Bronx,GRAND CONCOURSE,-73.901289,40.855337
sichuan hotpot cuisine,Manhattan,pell,-73.998261,40.714879
PLG Social LLC,Brooklyn,Flatbush Avenue,-73.960555,40.659579
Sonbobs,Queens,28 ave,-73.917488,40.767268
The Uptown Garrison Inc,Manhattan,West 181st Street,-73.939285,40.851202
Osteria Nando,Manhattan,2nd Avenue,-73.953424,40.775589
Saggio Restaurant Inc,Manhattan,West 181st Street,-73.939635,40.851287
John's Pizzeria,Manhattan,Bleecker St,-74.003172,40.731504
Lar Portugues,Queens,Jamaica Avenue,-73.732109,40.720537
Farewell,Brooklyn,Troutman,-73.929303,40.700033
DunHuang MissNoodle,Brooklyn,Myrtle,-73.963362,40.693714
Shake Shack #1233,Manhattan,Varick Street,-74.005246,40.729146
Thai Chella,Manhattan,"9th Avenue, South Store",-73.989589,40.762599
AUNTS ET UNCLES,Manhattan,NOSTRAND AVE,-73.949704,40.652125
Nomo Soho,Manhattan,Crosby Street,-74.000307,40.719904
Meme Mediterranean,Manhattan,Hudson Street,-74.005871,40.736365
LA TRAVIATA PIZZA,Manhattan,68 STREET,-73.980861,40.774949
Little Atlas,Manhattan,west 4th street,-73.99457,40.728559
Egeo,Queens,34th Ave,-73.927121,40.759623
86 Chikurin Japanese Restaurant,Brooklyn,86 Street,-73.990018,40.599614
Sushi Yu 2,Manhattan,West 181 Street,-73.939596,40.851282
Sweet Moment,Manhattan,Mott Street,-73.997338,40.717481
Sushi Yu 2,Manhattan,West 181st Street,-73.939596,40.851282
LA ESTRELLA BAR & RESTAURANT,Bronx,Jerome ave,-73.916662,40.841655
ICE CREAM HOUSE,Brooklyn,AVENUE M,-73.957842,40.61826
NEW CHOI FOOK RESTAURANT,Brooklyn,86th Street,-73.99709,40.603896
SWEETGREEN,Manhattan,BOWERY,-73.991734,40.726535
Europa,Brooklyn,65th street,-73.98543,40.616269
LA ESTRELLA BAR & RESTAURANT,Bronx,JEROME AVE,-73.916691,40.841614
Wild Birds,Brooklyn,Dean St.,-73.958352,40.678185
The Pizza Parlor,Staten Island,Sneden Ave,-74.177057,40.540539
The Beatrice Inn,Manhattan,West 12th Street,-74.004009,40.737553
Regina's Family Pizzeria,Queens,Union tpke,-73.79256,40.725523
El Patio Mexicano,Manhattan,Broadway,-73.945115,40.833724
Starbucks Coffee,Manhattan,Third Ave,-73.975682,40.749076
Warique,Queens,37 ave,-73.87671,40.750539
The Breslin,Manhattan,Broadway,-73.988639,40.745713
Rintintin,Manhattan,Spring Street,-73.994823,40.721348
Franks Wine Bar,Brooklyn,Court Street,-73.998356,40.677237
PICK A BAGEL,Manhattan,Second Avenue,-73.956167,40.771832
Tempura Matsui,Manhattan,39th Street,-73.974773,40.748409
BLUE CITY LOUNGE CORP.,Queens,NORTHERN BLVD,-73.861702,40.757809
Desi Galli,Manhattan,Avenue B,-73.979583,40.72733
E & S SWEET BITES INC,Bronx,MORRIS PARK AVE,-73.866765,40.845097
NY SHOPKEEPER INC,Queens,37th Ave,-73.83332,40.760725
E & S SWEET BITES INC,Bronx,Morris Park Ave,-73.866765,40.845097
E & S Sweet Bites Inc,Bronx,Morris Park Avenue,-73.866765,40.845097
The Tasty Waffle Company,Brooklyn,Malcolm X Boulevard,-73.929491,40.685181
Nuevo Don Francisco Restaurant Corp,Queens,Junction Blvd,-73.868768,40.748051
Sweet Polly,Brooklyn,Sixth Ave,-73.974575,40.680531
PICASSO PIZZERIA,Manhattan,SOUTH END AVENUE,-74.016325,40.710255
The Harold,Manhattan,Broadway,-73.988465,40.748296
LOS CAFETALES RESTAURANT CORP,Queens,ROOSEVELT AVE,-73.887402,40.747278
LOS CAFETALES RESTAURANT CORP,Queens,ROOSEVELT AVE,-73.887402,40.747278
the Horny Ram,Manhattan,SECOND AVE,-73.968324,40.75517
kosher Hut of Brooklyn,Brooklyn,Kings Highway,-73.965438,40.606205
The Beatrice Inn,Manhattan,West 12th Street,-74.004009,40.737553
The Bao,Manhattan,Saint Marks Place,-73.988956,40.729156
The Bao,Manhattan,Saint Mark's PLace,-73.988869,40.729118
Truffa pizzeria & wine room corp,Bronx,Riverdale Avenue,-73.907001,40.886057
Atlas Cafe,Manhattan,2nd ave,-73.989295,40.726384
Absurd Conclave,Brooklyn,Jefferson st.,-73.924821,40.705764
&pizza,Manhattan,West 28th Street,-73.988383,40.74515
NUM PANG KITCHEN,Manhattan,LIBERTY STREET,-74.015673,40.711537
Bean n Bean,Queens,Northern Blvd,-73.736022,40.770037
Black iris,Brooklyn,Dekalb ave,-73.970284,40.689505
Starbucks Coffee,Manhattan,Third Ave,-73.975682,40.749076
"Trattoria Tre Colori, Inc.",Manhattan,West 47th Street,-73.986348,40.759919
NONNAS 1977,Queens,BELL BLVD,-73.771716,40.764964
Regina's Family Italian Pizzeria & Restaurant,Queens,Union Turnpike,-73.791571,40.725837
Haenyeo,Brooklyn,5th Ave,-73.98125,40.675237
GREEN GARDEN VILLAGE INC,Manhattan,GRAND ST,-73.996053,40.718908
Jimbos Restaurant & Bar,Queens,Astoria Blvd.,-73.918831,40.770272
Twist Coffee,Brooklyn,13th Ave,-74.009412,40.618408
Joes Pizza,Brooklyn,bedford ave,-73.958833,40.716815
Joes Pizza,Brooklyn,bedford ave,-73.958833,40.716815
Red Lobster,Manhattan,Times Square,-73.987208,40.755709
PATRON MEXICAN GRILL,Manhattan,9TH AVENUE,-73.991954,40.759341
jose luis,Manhattan,avenue b,-73.979225,40.727816
Spot Dessert Bar,Manhattan,St Marks Place,-73.989042,40.729192
Popeyes,Manhattan,Walker St,-74.000794,40.717854
Bar B,Manhattan,7th Avenue,-73.999022,40.739477
Beso NYC,Queens,28th Avenue,-73.909507,40.763513
Toribro Ramen,Manhattan,52nd street,-73.987275,40.764407
Yatenga French Bistro,Manhattan,Adam Clayton Powell Jr Blvd,-73.944409,40.814318
GD FOOD INC,Queens,38TH AVE,-73.826365,40.761812
Markjoseph steakhouse,Manhattan,Water street,-74.001591,40.708418
Miller's Ale House,Staten Island,Richmond ave,-74.169793,40.575922
Silvana,Manhattan,W. 116th Street,-73.955593,40.804505
THE NEW SANTIAGO RESTAURANT CORP.,Brooklyn,FULTON STREET,-73.869787,40.684327
Ouaga,Manhattan,Adam Clayton Powell Jr Blvd,-73.944126,40.814738
Sabor Latino,Queens,40th Road,-73.869846,40.748541
abc Restaurants,Manhattan,East 19th Street,-73.989456,40.738258
The Circus,Brooklyn,Coney Island Avenue,-73.962561,40.610909
Cafe Wha,Manhattan,MACDOUGAL ST,-74.000451,40.73006
Pinch Chinese,Manhattan,Prince Street,-74.001941,40.7263
MI GRAN SUENO GRILL & LOUNGE RESTAURANT CORP,Manhattan,BROADWAY,-73.954201,40.821305
Gata Golosa Colombian Eatery,Queens,31st St,-73.921853,40.766336
La Perla Del Ulua Restaurant Inc,Brooklyn,Melrose Street,-73.928026,40.703691
Shuxiang inc,Queens,41st Ave,-73.829066,40.758679
Bricklyn pizza,Brooklyn,Hancock street,-73.910826,40.692573
Jing Wei Hotpot inc,Brooklyn,60th Street,-74.011342,40.636562
Taqueria San Pedro,Manhattan,Broadway,-73.947535,40.830409
prima pasta & cafe,Queens,CrossBay BLVD,-73.83885,40.654982
Wanshun Seafood Restaurant,Queens,40th road,-73.83013,40.75887
CITY SNOOKER,Queens,BROADWAY,-73.889981,40.746056
Morandi,Manhattan,Waverly pl,-74.001635,40.735379
Yoodon,Queens,Northern blvd,-73.765438,40.760851
Yara,Manhattan,53rd Street,-73.966489,40.75649
Worthwild,Manhattan,9TH AVE,-74.002876,40.744352
Sofia wine bar,Manhattan,East 50th Street,-73.969756,40.75539
Sushi X9,Queens,Northern blvd,-73.914703,40.753803
MOIC CAFE,Manhattan,CROSBY ST,-73.997341,40.723437
MOIC CAFE,Manhattan,BROADWAY,-73.998092,40.72386
Shaking Crab,Queens,Prince Street,-73.832952,40.76076
Osteria 57,Manhattan,west 10th,-73.997258,40.734185
Tangra Masala,Queens,Grand Ave,-73.878122,40.736402
Yakiniku Gen,Manhattan,East 52nd St,-73.968716,40.756589
Jin Ding Xuan,Queens,Main St,-73.826028,40.745823
GRAIN HOUSE,Manhattan,Amsterdam ave,-73.965933,40.80012
TW noodle House,Brooklyn,8th AVE,-74.006122,40.638788
joy cafe inc,Queens,150st,-73.814225,40.763215
LENWICH,Manhattan,COLUMBUS AVE,-73.973817,40.784216
VOILA AFRIQUE,Manhattan,2ND AVENUE,-73.970863,40.751649
Maite,Brooklyn,Central Ave,-73.926815,40.699043
Springbone Kitchen,Manhattan,West 3rd Street,-73.99908,40.729909
Jax Inn Diner,Queens,Northern Blvd,-73.894439,40.754599
LENWICH,Manhattan,COLUMBUS AVE,-73.977707,40.778917
SWEETGREEN,Brooklyn,WASHINGTON ST.,-73.989617,40.702834
SWEET GREEN,Manhattan,PARK AVE,-73.975951,40.754508
Elephant & Castle,Manhattan,Greenwich Ave,-74.000942,40.736321
Just Salad,Manhattan,East 8th Street,-73.993635,40.731119
Just Salad,Manhattan,East 8th Street,-73.993635,40.731119
Paris Oven,Queens,30th avenue,-73.915672,40.764201
VEGETARIAN DIM SUM HOUSE,Manhattan,Pell Street,-73.998186,40.714862
PIPA,Manhattan,EAST 19 ST.,-73.989456,40.738258
ELIO'S RESTAURANT,Manhattan,2ND AVENUE,-73.952571,40.77676
Corto Cafe,Brooklyn,Halsey Street,-73.943152,40.682567
Vida Verde,Manhattan,West 55th Street,-73.982867,40.765002
ELI'S TASTE,Manhattan,3RD AVE,-73.956717,40.775058
Spicy Empire Skewer Hot Pot,Queens,45th Ave,-73.814983,40.75552
Dengji Restaurant,Queens,kissena blvd,-73.8186,40.750121
La Contenta Next Door,Manhattan,Norfolk,-73.987078,40.71891
Il Piccolo Bufalo Restaurant,Manhattan,Mulberry Street,-73.997619,40.718705
Graziellas Restaurant,Brooklyn,Vanderbilt Ave,-73.969331,40.690562
Arts and Crafts Beer Parlor,Manhattan,Amsterdam Ave,-73.961161,40.806654
Lhasa Fast food,Queens,74th St,-73.891617,40.747737
Panorama Restaurant,Queens,Astoria Blvd,-73.882056,40.764147
BAREBURGER,Manhattan,1681 1 AVENUE,-73.948721,40.777788
FLAVA II LOUNGE,Brooklyn,8920 AVENUE D,-73.912787,40.645905
DENGJI IIII RESTAURANT,Queens,4009 PRINCE ST,-73.831823,40.758831
DENG JI RESTAURANT,Queens,4622 KISSENA BLVD,-73.8186,40.750121
Cozy Royale,Brooklyn,434 HUMBOLDT STREET,-73.943061,40.716912
GOWANUS CORNER CAFE,Brooklyn,400 4 AVENUE,-73.987253,40.672123
LENWICH,Manhattan,613 9 AVENUE,-73.991922,40.75942
Pho 60,Brooklyn,60th Street,-74.004813,40.632642
LENWICH,Manhattan,16 WEST   23 STREET,-73.990394,40.741884
PELICAN REEF CATERERS,Brooklyn,1260 FLATBUSH AVENUE,-73.954661,40.639498
MULBERRY &amp; VINE,Manhattan,155 EAST   44 STREET,-73.974241,40.752386
SOJU HAUS,Manhattan,315 5 AVENUE,-73.985596,40.747002
MEMORIES BAR SHEVROJA,Brooklyn,2611 BATH AVENUE,-73.988377,40.592799
R &amp; J LOUNGE,Manhattan,109 EAST  116 STREET,-73.94259,40.799043
CHOLULA DELI GROCERY,Brooklyn,222 WYCKOFF AVENUE,-73.913981,40.701128
XI'AN FAMOUS FOODS,Manhattan,45 BAYARD STREET,-73.997168,40.715153
KEUR COUMBA RESTAURANT,Manhattan,125 WEST  116 STREET,-73.950602,40.80242
La Nonna Ristorante & Bar,Brooklyn,Kent Ave,-73.963698,40.718491
MALA PROJECT,Manhattan,41 WEST   46 STREET,-73.980426,40.75663
MALA PROJECT,Manhattan,122 1 AVENUE,-73.985572,40.727188
KEUR COUMBA RESTAURANT,Manhattan,125 WEST  116 STREET,-73.950602,40.80242
HARU,Manhattan,433 AMSTERDAM AVENUE,-73.977521,40.784234
PURPLE DOUGH,Queens,3805 69TH ST,-73.896426,40.746899
GOLDEN RING,Brooklyn,595 BEDFORD AVENUE,-73.960457,40.703553
MINNIE'S,Manhattan,29 CLINTON STREET,-73.984365,40.720466
FUKUOKA SHABU SHABU,Queens,45-68 KISSENA BOULEVARD,-73.819374,40.750844
DELI EL BIGOTES,Brooklyn,3 EAST   31 STREET,-73.948549,40.650541
BURGER KING,Manhattan,106 LIBERTY STREET,-74.012,40.709831
Someday Bar,Brooklyn,Atlantic Ave,-73.98623,40.687466
MR. CHOW TRIBECCA,Manhattan,121 HUDSON STREET,-74.008575,40.720052
XI'AN FAMOUS FOODS,Manhattan,313 6 AVENUE,-74.001537,40.730861
CHINESE RESTAURANT,Queens,4626 KISSENA BLVD,-73.81852,40.750047
ALADDIN HOOKAH LOUNGE,Queens,25-57 STEINWAY STREET,-73.912014,40.767542
TASTE OF LAHORE,Queens,7310 NORTHERN BOULEVARD,-73.89353,40.754694
BOLERO,Brooklyn,177 BEDFORD AVENUE,-73.957472,40.718058
CAFE SELECT,Manhattan,212 LAFAYETTE STREET,-73.99759,40.721782
TASTY BAKERY,Brooklyn,4505 8 AVENUE,-74.000894,40.643814
SUBWAY,Queens,18524A HORACE HARDING EXPY,-73.788961,40.739945
SUBWAY,Queens,18524A HORACE HARDING EXPY,-73.788961,40.739945
I AM THAI EXPRESS,Queens,4908 43RD AVE,-73.915376,40.744549
JERK HOUSE CARIBBEAN RESTAURANT,Manhattan,2143 ADAM CLAYTON POWELL JR BOULEVARD,-73.947305,40.810351
GRIND NYC COFFEE SHOP,Manhattan,602 9 AVENUE,-73.992062,40.759195
HUNAN DELIGHT,Manhattan,1467 YORK AVENUE,-73.951077,40.770529
HUNAN DELIGHT,Manhattan,1467 YORK AVENUE,-73.951077,40.770529
BLUE BOTTLE COFFEE,Manhattan,20 BROAD STREET,-74.011033,40.706553
TARALLUCCI E VINO,Manhattan,44 EAST   28 STREET,-73.985171,40.743777
EL SALVADOR RESTAURANT,Brooklyn,1544 MYRTLE AVENUE,-73.911762,40.699469
PASIONES SPORTS-BAR,Queens,40-04 69 STREET,-73.896275,40.746021
FERRARA BAKERY & CAFE INC,Manhattan,GRAND STREET,-73.996991,40.71921
BISTRO PUNTA SAL,Queens,45-51 46 STREET,-73.918923,40.742007
THE HOLLER,Brooklyn,348 FRANKLIN AVENUE,-73.9569,40.687234
BEATSTRO,Bronx,135 ALEXANDER AVENUE,-73.927162,40.807307
LOS CAFETALES RESTAURANT,Queens,7817 ROOSEVELT AVE,-73.887402,40.747278
IZZY'S BBQ SMOKEHOUSE,Brooklyn,397 TROY AVENUE,-73.937043,40.664838
THE GRADIENT,Brooklyn,17 WYCKOFF AVENUE,-73.92302,40.706682
BLUE BOTTLE COFFEE,Brooklyn,76 NORTH    4 STREET,-73.962014,40.717722
SOUTHERN HOSPITALITY,Manhattan,645 9 AVENUE,-73.991109,40.760535
SOUTHERN HOSPITALITY,Manhattan,645 9 AVENUE,-73.991109,40.760535
CLAY POT,Manhattan,270 BLEECKER STREET,-74.003121,40.731413
Clara's,Brooklyn,Wilson ave,-73.928856,40.702497
DEMI-MONDE,Brooklyn,257 VARET STREET,-73.933904,40.704114
MR. CHOW RESTAURANT,Manhattan,324 EAST   57 STREET,-73.964243,40.758855
MONTE'S BRICK OVEN,Bronx,136 ALEXANDER AVENUE,-73.927094,40.807367
MONTE'S BRICK OVEN,Bronx,136 ALEXANDER AVENUE,-73.927094,40.807367
PARDON MY FRENCH,Manhattan,103 AVENUE B,-73.981377,40.72483
MARKET TABLE,Manhattan,54 CARMINE STREET,-74.003666,40.729939
EAST COAST BURGERS,Queens,5321 METROPOLITAN AVE,-73.912375,40.7133
NEW TU DO RESTAURANT,Manhattan,102 BOWERY,-73.995184,40.717769
CHEOGOD.ZIP,Queens,16024 NORTHERN BOULEVARD,-73.805241,40.762786
THE CRABBY SHACK,Brooklyn,613 FRANKLIN AVENUE,-73.955526,40.677407
Bella Gioia,Brooklyn,4th Ave,-73.98294,40.677546
GUANTANAMERA,Manhattan,939 8 AVENUE,-73.983603,40.765735
MCDONALDS,Bronx,279 EAST  149 STREET,-73.921851,40.817162
MCDONALD'S,Bronx,2870 3 AVENUE,-73.917029,40.816399
LOS CAFETALES RESTAURANT,Queens,7817 ROOSEVELT AVE,-73.887402,40.747278
SALTWATER COFFEE,Manhattan,126 WAVERLY PLACE,-73.999664,40.732722
RYAN'S DAUGHTER CAFE,Manhattan,350 EAST   85 STREET,-73.951044,40.77668
FROST RESTAURANT,Brooklyn,193 FROST STREET,-73.943536,40.718211
RULE OF THIRDS,Brooklyn,29 NORMAN AVENUE,-73.954538,40.724526
BREAD &amp; BUTTER,Manhattan,25 WEST   56 STREET,-73.975489,40.762736
SPACE KARAOKE,Manhattan,34 WEST   32 STREET,-73.987101,40.747826
Rathbone's Pub,Manhattan,2nd Ave,-73.95067,40.779334
TASTE OF COCHIN,Queens,248-08 UNION TURNPIKE,-73.721794,40.742421
TASTE OF COCHIN,Queens,248-08 UNION TURNPIKE,-73.721794,40.742421
MCDONALD'S,Bronx,1749 UNIVERSITY AVENUE,-73.915968,40.850122
BLVD DINER,Queens,4311 QUEENS BLVD,-73.921274,40.743466
KONDITORI,Brooklyn,114 SMITH STREET,-73.98976,40.687793
PEACEFOOD CAFE DOWNTOWN,Manhattan,41 EAST   11 STREET,-73.993148,40.733241
HANAMICHI,Manhattan,28 WEST   32 STREET,-73.986878,40.74773
EL TIPICO RESTAURANT,Brooklyn,2933 FULTON STREET,-73.886573,40.679341
Lalys Restaurant,Queens,Roosevelt ave,-73.890243,40.746979
Dante,Manhattan,Macdougal St,-74.001533,40.728778
SAN MARZANO,Manhattan,117 2 AVENUE,-73.988191,40.727897
MABAT STEAKHOUSE,Brooklyn,1809 EAST    7 STREET,-73.965704,40.60648
MABAT STEAKHOUSE,Brooklyn,1809 EAST    7 STREET,-73.965704,40.60648
RIVERCREST,Queens,3315 DITMARS BLVD,-73.909498,40.775294
NINOS AQ,Queens,3501 DITMARS BLVD,-73.908788,40.774793
TONCHIN NEW YORK,Manhattan,13 WEST   36 STREET,-73.984354,40.750041
GUACUCO BED-STUY,Brooklyn,360 THROOP AVENUE,-73.94274,40.691962
JUN-MEN RAMEN BAR,Manhattan,249 9 AVENUE,-74.000339,40.747868
THE DITTY,Queens,3503 DITMARS BLVD,-73.908777,40.774785
Blank Slate Coffee + Kitchen (NoMad),Manhattan,Madison Avenue,-73.984662,40.745405
DEN SOCIAL/ KARAOKE DUET,Manhattan,65 WEST   36 STREET,-73.986,40.750733
ATOBOY,Manhattan,43 EAST   28 STREET,-73.985168,40.743794
ICE CREAM HOUSE ON 36,Brooklyn,2 CHURCH AVENUE,-73.983241,40.64123
THE CHURCHILL TAVERN,Manhattan,45 EAST   28 STREET,-73.985139,40.743783
ICE CREAM HOUSE ON AVE M,Brooklyn,1725 AVENUE M,-73.957842,40.61826
INDIE FOOD AND WINE,Manhattan,144 WEST   65 STREET,-73.983511,40.773574
SHAKING CRAB,Manhattan,2869 BROADWAY,-73.966017,40.805121
LUCALI,Brooklyn,575 HENRY STREET,-74.000465,40.681914
BAKERY RESTAURANT LOS PARCEROS,Queens,40-09 82 STREET,-73.883869,40.747324
Two Hands Williamsburg,Brooklyn,Kent Ave,-73.965983,40.716334
THE THIRSTY KOALA,Queens,35-12 DITMARS BOULEVARD,-73.908741,40.774736
YU KITCHEN,Manhattan,2656 BROADWAY,-73.969546,40.797697
YU KITCHEN,Manhattan,2656 BROADWAY,-73.969546,40.797697
BASQUIAT'S BOTTLE,Brooklyn,1198 FULTON STREET,-73.952704,40.680581
SYMPOSIUM GREEK RESTAURANT,Manhattan,544 WEST  113 STREET,-73.963947,40.805496
LAS DELICIAS RESTAURANT &amp; BAKERY,Queens,1801 COLLEGE POINT BLVD,-73.845856,40.782991
PHO 32,Queens,4534 BELL BLVD,-73.768819,40.759326
GUACUCO,Brooklyn,44 IRVING AVENUE,-73.924479,40.704753
LA TRONCALENA RESTAURANT,Queens,10210 37TH AVE,-73.865188,40.753059
SAKURA KAI,Queens,3515 DITMARS BLVD,-73.908719,40.774741
Wise Bar & Grill,Brooklyn,Neptune ave,-73.955466,40.582865
ACENTO LATIN KITCHEN &amp; BAR,Queens,3306 DITMARS BLVD,-73.909517,40.775285
TASTY'S DINER,Queens,3304 DITMARS BOULEVARD,-73.909517,40.775285
OCEAN TREASURES,Brooklyn,1706 CHURCH AVENUE,-73.963722,40.649177
LE MXICANO,Bronx,141 LINCOLN AVENUE,-73.928996,40.808472
AMAZING GRACE RESTAURANT,Queens,6902 ROOSEVELT AVE,-73.896174,40.746342
ART BAR,Manhattan,52 8 AVENUE,-74.00363,40.738585
TAVERNA KYCLADES,Queens,33-07 DITMARS BOULEVARD,-73.909502,40.775296
FOUR FOUR SOUTH VILLAGE TAIPEI BEEF NOODLES,Queens,3806 PRINCE ST,-73.832571,40.760073
FOUR FOUR SOUTH VILLAGE TAIPEI BEEF NOODLES,Queens,3806 PRINCE ST,-73.832571,40.760073
SEBASTIAN - CHLOE 81/ FARM HOUSE,Manhattan,81 LUDLOW STREET,-73.989419,40.718021
BARFLY NY,Manhattan,3RD AVE,-73.984455,40.737053
CARROT TOP PASTRIES,Manhattan,3931 BROADWAY,-73.941475,40.838731
BEER STREET SOUTH,Brooklyn,550 VANDERBILT AVENUE,-73.967923,40.680309
THE STRAND SMOKE HOUSE,Queens,25-27 BROADWAY,-73.928196,40.763315
SOMPONG THAI,Queens,3709 83RD ST,-73.883313,40.749524
JAGALCHI CORP,Queens,35-02 154 STREET,-73.810853,40.765831
SLICE &amp; CO,Bronx,3439 EAST TREMONT AVENUE,-73.827778,40.832488
SIP N CHAT COCKTAIL,Brooklyn,2910 AVENUE D,-73.94927,40.64089
PEE DEE STEAK,Manhattan,2006 3 AVENUE,-73.942706,40.794292
ATLAS KITCHEN,Manhattan,258 WEST  109 STREET,-73.966025,40.80309
ZENITH THAI,Queens,7002 FRESH POND RD,-73.895175,40.702477
Bar Crudo,Brooklyn,5th ave.,-73.985519,40.67013
MYRTLE SENECA PUB,Queens,5653 MYRTLE AVE,-73.904429,40.70033
HAPPY TOWN CHINESE RESTAURANT,Queens,1803 COLLEGE POINT BOULEVARD,-73.845856,40.782988
EUGENE MILLER,Manhattan,782 AMSTERDAM AVENUE,-73.969294,40.795548
ELEVA COFFEE BAR,Brooklyn,649 GRAND STREET,-73.946345,40.711419
SOB's,Manhattan,200 VARICK STREET,-74.005343,40.728347
TONG SAM GYUP GOO YI RESTAURANT,Queens,16223 DEPOT ROAD,-73.802937,40.761991
ZURILEE,Brooklyn,755 FLATBUSH AVENUE,-73.959592,40.654358
LAST STOP BAR &amp; GRILL,Bronx,4609 WHITE PLAINS ROAD,-73.851309,40.902346
MCDONALD'S,Manhattan,208 DYCKMAN STREET,-73.926954,40.865028
MCDONALD'S,Bronx,16 WESTCHESTER SQ,-73.843314,40.841082
JUST SALAD,Brooklyn,252 7 AVENUE,-73.9795,40.669407
THE MAZE,Manhattan,32 WEST   32 STREET,-73.987029,40.747793
BANGIA,Manhattan,11 EAST   32 STREET,-73.984741,40.746843
CHINA GLATT,Brooklyn,4413 13 AVENUE,-73.989335,40.637687
NAOMI KOSHER PIZZA,Queens,68-28 MAIN STREET,-73.824818,40.732474
PITANT SPORT TEAM,Brooklyn,502 EAST   95 STREET,-73.916765,40.655509
Sakura of Japan Teriyaki,Manhattan,65 WEST   30 STREET,-73.988975,40.747017
HOU YI HOT POT,Manhattan,92 HESTER STREET,-73.992623,40.71641
TUOME,Manhattan,536 EAST    5 STREET,-73.983462,40.724457
Espresso 77,Queens,77th Street,-73.889255,40.750919
POLLOS A LA BRASA MARIO,Queens,8101 ROOSEVELT AVENUE,-73.884717,40.747558
NORIKOH,Manhattan,43 WEST   24 STREET,-73.990686,40.742883
THE WOLFHOUND,Queens,3814 30TH AVE,-73.915668,40.764201
KEENS STEAKHOUSE,Manhattan,72 WEST   36 STREET,-73.986108,40.75076
MISHKA SOHO,Manhattan,519 BROOME STREET,-74.003821,40.723763
LIDO,Manhattan,2168 FREDERICK DOUGLAS BOULEVARD,-73.954939,40.804991
FREVO,Manhattan,48 WEST    8 STREET,-73.998549,40.733178
BLACK CAT LES,Manhattan,172 RIVINGTON STREET,-73.984607,40.718951
TASTE OF CHINA,Queens,67-08 FRESH POND ROAD,-73.896479,40.705552
ZAMAAN,Brooklyn,8915 5 AVENUE,-74.027826,40.619601
TASTE OF CHINA,Queens,67-08 FRESH POND ROAD,-73.896479,40.705552
CINCO NACIONES RESTAURANT,Bronx,806 WESTCHESTER AVENUE,-73.903225,40.818836
KX BURGER &amp; BEYOND INC,Queens,2904 DITMARS BLVD,-73.911551,40.77672
BZ GRILL,Queens,27-02 ASTORIA BOULEVARD,-73.920924,40.77082
SKINNY'S CANTINA,Queens,4705 CENTER BOULEVARD,-73.956823,40.745961
CASA AZUL,Brooklyn,369 7 AVENUE,-73.982647,40.665598
IL CAFFE LATTE 2,Manhattan,458 WEST  145 STREET,-73.946756,40.824867
BG RESTAURANT,Manhattan,754 5 AVENUE,-73.973615,40.763469
AMPLE HILLS CREAMERY,Brooklyn,305 NEVINS STREET,-73.987446,40.679004
Treadwell Park,Manhattan,First Avenue,-73.960791,40.761247
ZEST RAMEN,Manhattan,112 ELDRIDGE STREET,-73.991973,40.718117
YOON HAEUNDAE GALBI,Manhattan,8 WEST   36 STREET,-73.984069,40.749903
GULSHAN TERRACE,Queens,5915 37 AVENUE,-73.903224,40.749883
BABAGHANOJ SPOT,Brooklyn,339 7 STREET,-73.984795,40.670152
KITH RETAIL,Manhattan,337 LAFAYETTE STREET,-73.994603,40.725978
ISLAND FUSION,Queens,13920 243RD ST,-73.735753,40.665101
ISLAND FUSION,Queens,13920 243RD ST,-73.735753,40.665101
HARLEM NIGHTS,Manhattan,2361 7 AVENUE,-73.942257,40.817268
ST BESS RESTAURANT,Bronx,4466 BAYCHESTER AVENUE,-73.846894,40.901418
BKLYN CREPE,Brooklyn,214 FLATBUSH AVENUE,-73.975378,40.681179
jaya 888,Manhattan,baxter street,-73.999755,40.71685
One for the road,Queens,150 Street,-73.814117,40.763034
SPACE BILLARD,Manhattan,34 WEST   32 STREET,-73.987101,40.747826
PASTA LOUISE,Brooklyn,803 8 AVENUE,-73.97879,40.666256
THE DECO FOOD + DRINK,Manhattan,231 WEST   39 STREET,-73.989363,40.754576
JIMMY'S,Manhattan,158 WEST   38 STREET,-73.987981,40.753167
DOC WATSONS,Manhattan,1490 2 AVENUE,-73.955708,40.772422
DORLAN'S,Manhattan,213 FRONT STREET,-74.002521,40.70732
AMPLE HILLS CREAMERY,Brooklyn,623 VANDERBILT AVENUE,-73.968486,40.678674
LA PARADA RESTAURANT,Brooklyn,855 4 AVENUE,-74.001741,40.656874
FIASCO,Bronx,2376 ARTHUR AVENUE,-73.887979,40.85505
AMERICAN BRASS,Queens,2-01 50 AVENUE,-73.958535,40.74359
Madison & Vine,Manhattan,Madison Avenue,-73.979416,40.752101
GILDA'S RESTAURANT,Queens,91-15 31 AVENUE,-73.877436,40.760146
THE BARN COFFEE SHOP,Queens,2608 HOYT AVE S,-73.920629,40.772445
APPETHAIZE,Manhattan,75 BAXTER STREET,-74.000047,40.716328
TABARE RESTAURANT,Brooklyn,1006 FLUSHING AVENUE,-73.930972,40.703835
QINGDAO,Queens,4046 MAIN ST,-73.829611,40.758477
THE DUPLEX,Manhattan,61 CHRISTOPHER STREET,-74.002353,40.733697
UPRIGHT COFFEE,Brooklyn,860 MANHATTAN AVENUE,-73.953828,40.729233
WYNWOOD,Staten Island,24 NAVY PIER COURT,-74.074318,40.62882
SUBWAY,Brooklyn,525 5 AVENUE,-73.988566,40.666444
BERGDORF GOODMAN,Manhattan,745 5 AVENUE,-73.973695,40.763326
Levante,Queens,Jackson Avenue,-73.941588,40.747411
GOLD STAR BEER COUNTER,Brooklyn,340 STERLING PLACE,-73.966865,40.675347
VILLA TAPIA RESTAURANT,Bronx,245 BROOK AVENUE,-73.91903,40.807892
VILLA TAPIA RESTAURANT,Bronx,245 BROOK AVENUE,-73.91903,40.807892
MARKET TABLE,Manhattan,54 CARMINE STREET,-74.003666,40.729939
PIO PIO,Manhattan,702 AMSTERDAM AVENUE,-73.971289,40.792807
AREITO LOUNGE AND GRILL,Bronx,2510 VALENTINE AVENUE,-73.89554,40.862698
SOUTH OF THE CLOUDS,Manhattan,16 WEST    8 STREET,-73.997074,40.732549
NUM PANG KITCHEN,Manhattan,1407 BROADWAY,-73.987151,40.753439
LA JACARANDA,Manhattan,354 BOWERY,-73.991713,40.726659
OKEEFES,Brooklyn,62 COURT STREET,-73.991241,40.692028
Senza Gluten,Manhattan,Sullivan,-74.000191,40.729099
HARLEM BURGER CO.,Manhattan,2190 FREDERICK DOUGLASS BOULEVARD,-73.954335,40.805817
BOQUERIA,Manhattan,53 WEST   19 STREET,-73.993046,40.739801
THE AINSWORTH,Manhattan,64 3 AVENUE,-73.988688,40.731237
FU MUN LOU,Brooklyn,5405 8 AVENUE,-74.006136,40.638772
ALL IN,Queens,3574 159TH ST,-73.806162,40.765258
SALLY'S SOUTHERN,Staten Island,427 FOREST AVENUE,-74.103542,40.630831
HOME SWEET HOME/ FIG 19,Manhattan,131 CHRYSTIE STREET,-73.993218,40.719369
DEACON BRODIE'S,Manhattan,370 WEST   46 STREET,-73.989774,40.760565
SUGARFISH BY SUSHI NOZAWA,Manhattan,202 SPRING STREET,-74.00346,40.725281
MAMAN,Manhattan,211 WEST BROADWAY,-74.006522,40.718941
Love and Dough,Brooklyn,Jay Street,-73.986681,40.702763
BLVD BISTRO,Manhattan,2149 FREDERICK DOUGLASS BOULEVARD,-73.955484,40.80428
THAI DIVA CUISINE,Queens,4553 46TH ST,-73.918923,40.742004
GOLDEN CITY SEAFOOD RESTAURANT,Brooklyn,6418 20 AVENUE,-73.985416,40.616963
MINNOWS,Brooklyn,167 NASSAU AVENUE,-73.946474,40.725209
MYTHOS RESTAURANT,Queens,196-29 NORTHERN BOULEVARD,-73.784923,40.757905
KING'S STREET COFFEE,Manhattan,121 WEST   30 STREET,-73.990443,40.747634
PRINTERS ALLEY,Manhattan,215 WEST   40 STREET,-73.988594,40.755056
VINATERIA,Manhattan,2211 FREDERICK DOUGLAS BOULEVARD,-73.953825,40.806549
BREADS BAKERY,Manhattan,122 GRAND STREET,-74.000444,40.720739
CAFE DES AFFICHEF,Manhattan,119 WEST   23 STREET,-73.993591,40.743248
Ho'Brah,Brooklyn,3rd Ave,-74.031153,40.623259
RAMEN DANBO,Manhattan,48 CARMINE STREET,-74.003482,40.729997
G &amp; L BAR &amp; RESTAURANT,Queens,10636 SUTPHIN BLVD,-73.801986,40.694447
The Royal Palms Shuffleboard Club,Brooklyn,514 UNION STREET,-73.986898,40.678902
ROW HOUSE,Manhattan,2128 FREDERICK DOUGLASS BOULEVARD,-73.955922,40.803649
KOKO WINGS,Manhattan,192 1 AVENUE,-73.983688,40.729779
HARLEM TAVERN,Manhattan,2153 8 AVENUE,-73.955304,40.804524
LUCILLE'S COFFEE AND COCKTAILS,Manhattan,26 MACOMBS PLACE,-73.938794,40.826162
MELBA'S,Manhattan,300 WEST  114 STREET,-73.956544,40.803202
PIZZA BY LUCILLE'S,Manhattan,26C MACOMBS PLACE,-73.938794,40.826162
LA BRUSCHETTA RESTAURANT,Brooklyn,256 7 AVENUE,-73.979687,40.669179
Wattli Bar & Kitchen,Brooklyn,Newkirk Ave,-73.963192,40.635604
STEINWAY MUNCHIES,Queens,2535 STEINWAY ST,-73.912,40.767558
KAM HING CAFE,Manhattan,118 BAXTER STREET,-73.999095,40.717914
PULIA,Brooklyn,548 4 AVENUE,-73.99167,40.666831
VIA QUADRONNO,Manhattan,25 EAST   73 STREET,-73.965449,40.772689
MR.BUN,Brooklyn,2048 86 STREET,-73.997126,40.603918
MAESTRO PASTA,Manhattan,45 JOHN STREET,-74.008,40.709241
MCCAFFREY AND BURKE,Queens,28-54 31 STREET,-73.920877,40.767532
CHICK-FIL-A,Manhattan,1536 3 AVENUE,-73.953808,40.779086
388 CAFE &amp; DELI,Manhattan,13 ELDRIDGE STREET,-73.993716,40.714772
CAFFE EGIDIO,Bronx,622 EAST  187 STREET,-73.886743,40.855128
Gran Morsi,Manhattan,Warren Street,-74.007719,40.714058
RONG CITY FISH BALL,Manhattan,19 ELDRIDGE STREET,-73.993633,40.714931
JOONG KOOG JIP,Queens,20316 NORTHERN BLVD,-73.77947,40.757552
SMOKE BBQ PIT,Queens,129-21 MERRICK BOULEVARD,-73.763723,40.680738
Nonnas1977,Queens,3926 BELL BLVD,-73.771716,40.764964
ANTOJITOS DELI FOOD,Brooklyn,1936 86 STREET,-73.999546,40.60537
OMEN JAPANESE CUISINE,Manhattan,113 THOMPSON STREET,-74.001851,40.72583
Q44 BAR &amp; GRILL,Bronx,1161 CASTLE HILL AVENUE,-73.850908,40.831318
JOE,Manhattan,9 EAST   13 STREET,-73.993512,40.735066
PIZZA BOY I,Queens,74-04 37 AVENUE,-73.891583,40.748972
232 Bleecker,Manhattan,bleecker st,-74.002432,40.730238
UMAMI SUSHI,Manhattan,50 GREENWICH AVENUE,-74.000563,40.735679
UMAMI SUSHI,Manhattan,50 GREENWICH AVENUE,-74.000563,40.735679
LE PAIN QUOTIDIEN,Manhattan,708 3 AVENUE,-73.973324,40.752328
LE PAIN QUOTIDIEN,Manhattan,395 SOUTH END AVENUE,-74.01586,40.711414
LE PAIN QUOTIDIEN,Manhattan,10 5 AVENUE,-73.996244,40.732415
CAFE EUROASIA,Brooklyn,602 BRIGHTON BEACH AVENUE,-73.961294,40.577633
NORTHERN WANGMANDOO DUMPLING,Queens,14944 NORTHERN BLVD,-73.815847,40.765298
UMAMI SUSHI,Manhattan,50 GREENWICH AVENUE,-74.000563,40.735679
THE PANDERING PIG,Manhattan,209 PINEHURST AVENUE,-73.938053,40.854553
NICK'S PIZZA,Queens,10826 ASCAN AVENUE,-73.840772,40.718013
Pizza Brook,Brooklyn,1215 SURF AVENUE,-73.98014,40.575552
MAX SOHA,Manhattan,1274 AMSTERDAM AVENUE,-73.957929,40.811118
MAX  CAFFE,Manhattan,1262 AMSTERDAM AVENUE,-73.958171,40.810783
COMPLETE BODY,Manhattan,10 HANOVER SQUARE,-74.00923,40.704328
MILK BAR NOLITA,Manhattan,246 MOTT STREET,-73.994758,40.723354
THE HAROLD,Manhattan,1271 BROADWAY,-73.988465,40.748296
GUYERS,Manhattan,286 COLUMBUS AVENUE,-73.978112,40.778363
RADIO STAR,Manhattan,3 WEST   35 STREET,-73.984585,40.749324
OASIS CAFE,Brooklyn,2689 CONEY ISLAND AVENUE,-73.960628,40.59106
THE MARK RESTAURANT,Manhattan,25 EAST   77 STREET,-73.963736,40.775285
CITROEN,Brooklyn,Manhattan ave,-73.954436,40.731193
Serafina Fabulous Pizza,Manhattan,Madison Avenue,-73.962367,40.776004
KISSAKI OMAKASE,Manhattan,319 BOWERY,-73.992128,40.725435
BABE&amp;AL / IDEAL SUPERMARKET,Brooklyn,2036 BEDFORD AVENUE,-73.956291,40.654856
Not Today Maybe Tomorrow,Brooklyn,749 METROPOLITAN AVENUE,-73.94399,40.71458
ANDREWS COFFEE SHOP,Manhattan,463 7 AVENUE,-73.990057,40.751749
FRESCO,Manhattan,34 EAST   52 STREET,-73.974325,40.758954
BLACK FLAMINGO,Brooklyn,168 BORINQUEN PLACE,-73.953895,40.710676
VANESSA DUMPLINGS,Manhattan,118A ELDRIDGE STREET,-73.99189,40.718279
THE GUTTER LES,Manhattan,242 BROOME STREET,-73.989279,40.717845
DONT TELL MAMA,Manhattan,343 WEST   46 STREET,-73.989196,40.76034
OLD MAN HUSTLE,Manhattan,39 ESSEX STREET,-73.989467,40.716135
PHO PLUS,Queens,13351 37TH AVE,-73.83328,40.760757
NEW YORK BURGER CO.,Manhattan,470 WEST   23 STREET,-74.003176,40.747264
